{
  "type": "FeatureCollection",
  "features": [
    {
      "type": "Feature",
      "properties": {
        "norad_id": 36036,
        "name": "SMOS",
        "group": "resource",
        "lat": 0.6521042701784368,
        "lon": -15.758384213094695,
        "alt_km": 762.2796044468987,
        "timestamp": "2025-12-04T23:34:05.387382+00:00",
        "meta_object_name": "SMOS",
        "meta_object_id": "2009-059A",
        "meta_epoch": "2025-12-04T12:43:52.487040",
        "meta_mean_motion": 14.39791112,
        "meta_eccentricity": 0.0001012,
        "meta_inclination": 98.4384,
        "meta_ra_of_asc_node": 163.7001,
        "meta_arg_of_pericenter": 72.1141,
        "meta_mean_anomaly": 288.0158,
        "meta_ephemeris_type": 0,
        "meta_classification_type": "U",
        "meta_norad_cat_id": 36036,
        "meta_element_set_no": 999,
        "meta_rev_at_epoch": 84544,
        "meta_bstar": 0.00025732,
        "meta_mean_motion_dot": 7.63e-06,
        "meta_mean_motion_ddot": 0,
        "tle_line1": "1 36036U 09059A   25338.53046860  .00000763  00000+0  25732-3 0  9991",
        "tle_line2": "2 36036  98.4384 163.7001 0001012  72.1141 288.0158 14.39791112845449"
      },
      "geometry": {
        "type": "Point",
        "coordinates": [
          -15.758384213094695,
          0.6521042701784368
        ]
      }
    },
    {
      "type": "Feature",
      "properties": {
        "norad_id": 36110,
        "name": "YAOGAN-7",
        "group": "resource",
        "lat": 24.884285587145737,
        "lon": -142.9882501738911,
        "alt_km": 632.2619337904971,
        "timestamp": "2025-12-04T23:34:05.387392+00:00",
        "meta_object_name": "YAOGAN-7",
        "meta_object_id": "2009-069A",
        "meta_epoch": "2025-12-04T15:19:45.778656",
        "meta_mean_motion": 14.77713846,
        "meta_eccentricity": 0.0023733,
        "meta_inclination": 98.0302,
        "meta_ra_of_asc_node": 220.4244,
        "meta_arg_of_pericenter": 308.6984,
        "meta_mean_anomaly": 51.2103,
        "meta_ephemeris_type": 0,
        "meta_classification_type": "U",
        "meta_norad_cat_id": 36110,
        "meta_element_set_no": 999,
        "meta_rev_at_epoch": 86089,
        "meta_bstar": 0.00019835,
        "meta_mean_motion_dot": 1.374e-05,
        "meta_mean_motion_ddot": 0,
        "tle_line1": "1 36110U 09069A   25338.63872429  .00001374  00000+0  19835-3 0  9990",
        "tle_line2": "2 36110  98.0302 220.4244 0023733 308.6984  51.2103 14.77713846860890"
      },
      "geometry": {
        "type": "Point",
        "coordinates": [
          -142.9882501738911,
          24.884285587145737
        ]
      }
    },
    {
      "type": "Feature",
      "properties": {
        "norad_id": 36605,
        "name": "TANDEM-X",
        "group": "resource",
        "lat": -15.767402589822085,
        "lon": 162.36036387862714,
        "alt_km": 513.55065576785,
        "timestamp": "2025-12-04T23:34:05.387403+00:00",
        "meta_object_name": "TANDEM-X",
        "meta_object_id": "2010-030A",
        "meta_epoch": "2025-12-04T14:48:17.883360",
        "meta_mean_motion": 15.19148899,
        "meta_eccentricity": 0.0001864,
        "meta_inclination": 97.4452,
        "meta_ra_of_asc_node": 344.1166,
        "meta_arg_of_pericenter": 95.4078,
        "meta_mean_anomaly": 264.7369,
        "meta_ephemeris_type": 0,
        "meta_classification_type": "U",
        "meta_norad_cat_id": 36605,
        "meta_element_set_no": 999,
        "meta_rev_at_epoch": 85710,
        "meta_bstar": 0.00011882,
        "meta_mean_motion_dot": 2.429e-05,
        "meta_mean_motion_ddot": 0,
        "tle_line1": "1 36605U 10030A   25338.61687365  .00002429  00000+0  11882-3 0  9996",
        "tle_line2": "2 36605  97.4452 344.1166 0001864  95.4078 264.7369 15.19148899857103"
      },
      "geometry": {
        "type": "Point",
        "coordinates": [
          162.36036387862714,
          -15.767402589822085
        ]
      }
    },
    {
      "type": "Feature",
      "properties": {
        "norad_id": 36795,
        "name": "CARTOSAT-2B",
        "group": "resource",
        "lat": -74.5652620646814,
        "lon": 57.973494262245985,
        "alt_km": 649.5597317858146,
        "timestamp": "2025-12-04T23:34:05.387413+00:00",
        "meta_object_name": "CARTOSAT-2B",
        "meta_object_id": "2010-035A",
        "meta_epoch": "2025-12-04T17:25:08.567040",
        "meta_mean_motion": 14.78770196,
        "meta_eccentricity": 0.0012894,
        "meta_inclination": 97.7865,
        "meta_ra_of_asc_node": 28.0161,
        "meta_arg_of_pericenter": 101.124,
        "meta_mean_anomaly": 259.1422,
        "meta_ephemeris_type": 0,
        "meta_classification_type": "U",
        "meta_norad_cat_id": 36795,
        "meta_element_set_no": 999,
        "meta_rev_at_epoch": 83111,
        "meta_bstar": 0.00020963,
        "meta_mean_motion_dot": 1.492e-05,
        "meta_mean_motion_ddot": 0,
        "tle_line1": "1 36795U 10035A   25338.72579360  .00001492  00000+0  20963-3 0  9997",
        "tle_line2": "2 36795  97.7865  28.0161 0012894 101.1240 259.1422 14.78770196831114"
      },
      "geometry": {
        "type": "Point",
        "coordinates": [
          57.973494262245985,
          -74.5652620646814
        ]
      }
    },
    {
      "type": "Feature",
      "properties": {
        "norad_id": 36834,
        "name": "YAOGAN-10",
        "group": "resource",
        "lat": -21.228709938416557,
        "lon": 175.7633491997929,
        "alt_km": 620.7613412699257,
        "timestamp": "2025-12-04T23:34:05.387424+00:00",
        "meta_object_name": "YAOGAN-10",
        "meta_object_id": "2010-038A",
        "meta_epoch": "2025-12-04T18:18:32.509728",
        "meta_mean_motion": 14.84560446,
        "meta_eccentricity": 0.0001515,
        "meta_inclination": 97.9146,
        "meta_ra_of_asc_node": 358.6436,
        "meta_arg_of_pericenter": 85.4321,
        "meta_mean_anomaly": 25.4685,
        "meta_ephemeris_type": 0,
        "meta_classification_type": "U",
        "meta_norad_cat_id": 36834,
        "meta_element_set_no": 999,
        "meta_rev_at_epoch": 82835,
        "meta_bstar": 0.00033482,
        "meta_mean_motion_dot": 2.772e-05,
        "meta_mean_motion_ddot": 0,
        "tle_line1": "1 36834U 10038A   25338.76287627  .00002772  00000+0  33482-3 0  9992",
        "tle_line2": "2 36834  97.9146 358.6436 0001515  85.4321  25.4685 14.84560446828350"
      },
      "geometry": {
        "type": "Point",
        "coordinates": [
          175.7633491997929,
          -21.228709938416557
        ]
      }
    },
    {
      "type": "Feature",
      "properties": {
        "norad_id": 37216,
        "name": "COSMO-SKYMED 4",
        "group": "resource",
        "lat": -12.1152197368157,
        "lon": -21.281756182671863,
        "alt_km": 627.3108755632729,
        "timestamp": "2025-12-04T23:34:05.387434+00:00",
        "meta_object_name": "COSMO-SKYMED 4",
        "meta_object_id": "2010-060A",
        "meta_epoch": "2025-12-04T19:27:49.322592",
        "meta_mean_motion": 14.82153432,
        "meta_eccentricity": 0.0001382,
        "meta_inclination": 97.8808,
        "meta_ra_of_asc_node": 160.2537,
        "meta_arg_of_pericenter": 83.3517,
        "meta_mean_anomaly": 276.7853,
        "meta_ephemeris_type": 0,
        "meta_classification_type": "U",
        "meta_norad_cat_id": 37216,
        "meta_element_set_no": 999,
        "meta_rev_at_epoch": 81577,
        "meta_bstar": 0.00013932,
        "meta_mean_motion_dot": 1.057e-05,
        "meta_mean_motion_ddot": 0,
        "tle_line1": "1 37216U 10060A   25338.81098753  .00001057  00000+0  13932-3 0  9991",
        "tle_line2": "2 37216  97.8808 160.2537 0001382  83.3517 276.7853 14.82153432815775"
      },
      "geometry": {
        "type": "Point",
        "coordinates": [
          -21.281756182671863,
          -12.1152197368157
        ]
      }
    },
    {
      "type": "Feature",
      "properties": {
        "norad_id": 37387,
        "name": "RESOURCESAT-2",
        "group": "resource",
        "lat": 44.827337558686686,
        "lon": 33.722432285729596,
        "alt_km": 811.4503617179798,
        "timestamp": "2025-12-04T23:34:05.387444+00:00",
        "meta_object_name": "RESOURCESAT-2",
        "meta_object_id": "2011-015A",
        "meta_epoch": "2025-12-04T16:35:53.673216",
        "meta_mean_motion": 14.21592362,
        "meta_eccentricity": 0.0006743,
        "meta_inclination": 98.7888,
        "meta_ra_of_asc_node": 42.2792,
        "meta_arg_of_pericenter": 63.3802,
        "meta_mean_anomaly": 296.8065,
        "meta_ephemeris_type": 0,
        "meta_classification_type": "U",
        "meta_norad_cat_id": 37387,
        "meta_element_set_no": 999,
        "meta_rev_at_epoch": 75854,
        "meta_bstar": 0.00017567,
        "meta_mean_motion_dot": 3.41e-06,
        "meta_mean_motion_ddot": 0,
        "tle_line1": "1 37387U 11015A   25338.69159344  .00000341  00000+0  17567-3 0  9994",
        "tle_line2": "2 37387  98.7888  42.2792 0006743  63.3802 296.8065 14.21592362758546"
      },
      "geometry": {
        "type": "Point",
        "coordinates": [
          33.722432285729596,
          44.827337558686686
        ]
      }
    }
  ]
}